[{"OBJECT_NAME":"OBJECT A","OBJECT_ID":"2024-205A","EPOCH":"2026-03-09T23:47:25.060128","MEAN_MOTION":15.10420635,"ECCENTRICITY":0.00183963,"INCLINATION":97.4208,"RA_OF_ASC_NODE":142.0688,"ARG_OF_PERICENTER":137.3438,"MEAN_ANOMALY":222.9224,"EPHEMERIS_TYPE":0,"CLASSIFICATION_TYPE":"U","NORAD_CAT_ID":61894,"ELEMENT_SET_NO":999,"REV_AT_EPOCH":7322,"BSTAR":0.00061451018,"MEAN_MOTION_DOT":0.00010084,"MEAN_MOTION_DDOT":0},{"OBJECT_NAME":"OBJECT C","OBJECT_ID":"2025-292C","EPOCH":"2026-03-09T21:40:07.439232","MEAN_MOTION":15.0561637,"ECCENTRICITY":0.00142936,"INCLINATION":97.6364,"RA_OF_ASC_NODE":145.6037,"ARG_OF_PERICENTER":339.8589,"MEAN_ANOMALY":20.2072,"EPHEMERIS_TYPE":0,"CLASSIFICATION_TYPE":"U","NORAD_CAT_ID":66995,"ELEMENT_SET_NO":999,"REV_AT_EPOCH":1350,"BSTAR":0.00047642755,"MEAN_MOTION_DOT":6.828e-5,"MEAN_MOTION_DDOT":0}]
